HTV-X1                  
1 66174U 25241A   26095.19137777  .00007088  00000+0  23350-3 0  9990
2 66174  51.6362 305.3144 0007368 275.0923  84.9217 15.32544764 25000
SZ-21 MODULE            
1 66515U 25246C   26095.22396600  .00051413  00000+0  40162-3 0  9991
2 66515  41.4750  39.7632 0003443 230.9448 129.1088 15.70779178 22241
SHENZHOU-22             
1 66645U 25272A   26095.26060825  .00034768  00000+0  38992-3 0  9997
2 66645  41.4682  46.3215 0003546 128.6293 231.4864 15.61939070281150
SOYUZ-MS 28             
1 66664U 25275A   26095.03712624  .00009326  00000+0  17854-3 0  9993
2 66664  51.6327 302.0967 0006294 273.6206  86.4063 15.48778120560504
DUPLEX                  
1 66906U 98067XS  26095.28483348  .00034554  00000+0  45585-3 0  9999
2 66906  51.6286 296.2512 0003388 238.8669 121.1992 15.58054408 19272
ISS OBJECT XT           
1 66907U 98067XT  26094.54951221  .00316879  00000+0  15900-2 0  9998
2 66907  51.6224 292.7926 0007185 249.6883 110.3346 15.80264331 19256
ISS OBJECT XU           
1 66908U 98067XU  26094.54446233  .00330086  00000+0  16263-2 0  9990
2 66908  51.6221 292.7537 0007323 249.1942 110.8275 15.80626802 19258
SILVERSAT               
1 66909U 98067XV  26094.78704661  .00565248  00000+0  18876-2 0  9991
2 66909  51.6184 289.8512 0009050 258.4718 101.5271 15.88187528 19315
ISS OBJECT XW           
1 66910U 98067XW  26094.81721722  .00228077  00000+0  12620-2 0  9991
2 66910  51.6195 291.5715 0007449 246.0581 113.9639 15.78347512 19297
ISS OBJECT XX           
1 66911U 98067XX  26095.25439823  .01178235  72726-3  21826-2 0  9996
2 66911  51.6140 285.4187 0011680 268.8533  91.1139 16.00504805 19405
ISS OBJECT XY           
1 66912U 98067XY  26095.24871134  .00141961  00000+0  11559-2 0  9990
2 66912  51.6246 292.2426 0005164 247.0020 113.0432 15.69674639 19312
KNACKSAT-2              
1 67683U 98067XZ  26094.79014270  .00049990  00000+0  75544-3 0  9999
2 67683  51.6331 301.9471 0010720 281.6024  78.3763 15.54148205  8848
