CCSDS_OMM_VERS = 2.0
CREATION_DATE  = 
ORIGINATOR     = 

OBJECT_NAME    = HTV-X1
OBJECT_ID      = 2025-241A
CENTER_NAME    = EARTH
REF_FRAME      = TEME
TIME_SYSTEM    = UTC
MEAN_ELEMENT_THEORY = SGP/SGP4

EPOCH          = 2026-04-05T04:35:35.039328
MEAN_MOTION    = 15.32544764
ECCENTRICITY   = .00073689
INCLINATION    = 51.6362
RA_OF_ASC_NODE = 305.3144
ARG_OF_PERICENTER = 275.0923
MEAN_ANOMALY   = 84.9217

EPHEMERIS_TYPE = 0
CLASSIFICATION_TYPE = U
NORAD_CAT_ID   = 66174
ELEMENT_SET_NO = 999
REV_AT_EPOCH   = 2500
BSTAR          = .2335001E-3
MEAN_MOTION_DOT = .7088E-4
MEAN_MOTION_DDOT = 0

CCSDS_OMM_VERS = 2.0
CREATION_DATE  = 
ORIGINATOR     = 

OBJECT_NAME    = SZ-21 MODULE
OBJECT_ID      = 2025-246C
CENTER_NAME    = EARTH
REF_FRAME      = TEME
TIME_SYSTEM    = UTC
MEAN_ELEMENT_THEORY = SGP/SGP4

EPOCH          = 2026-04-05T05:22:30.662400
MEAN_MOTION    = 15.70779178
ECCENTRICITY   = .00034436
INCLINATION    = 41.4750
RA_OF_ASC_NODE = 39.7632
ARG_OF_PERICENTER = 230.9448
MEAN_ANOMALY   = 129.1088

EPHEMERIS_TYPE = 0
CLASSIFICATION_TYPE = U
NORAD_CAT_ID   = 66515
ELEMENT_SET_NO = 999
REV_AT_EPOCH   = 2224
BSTAR          = .40161545E-3
MEAN_MOTION_DOT = .51413E-3
MEAN_MOTION_DDOT = 0

CCSDS_OMM_VERS = 2.0
CREATION_DATE  = 
ORIGINATOR     = 

OBJECT_NAME    = SHENZHOU-22
OBJECT_ID      = 2025-272A
CENTER_NAME    = EARTH
REF_FRAME      = TEME
TIME_SYSTEM    = UTC
MEAN_ELEMENT_THEORY = SGP/SGP4

EPOCH          = 2026-04-05T06:15:16.552800
MEAN_MOTION    = 15.61939070
ECCENTRICITY   = .0003546
INCLINATION    = 41.4682
RA_OF_ASC_NODE = 46.3215
ARG_OF_PERICENTER = 128.6293
MEAN_ANOMALY   = 231.4864

EPHEMERIS_TYPE = 0
CLASSIFICATION_TYPE = U
NORAD_CAT_ID   = 66645
ELEMENT_SET_NO = 999
REV_AT_EPOCH   = 28115
BSTAR          = .389924E-3
MEAN_MOTION_DOT = .34768E-3
MEAN_MOTION_DDOT = 0

CCSDS_OMM_VERS = 2.0
CREATION_DATE  = 
ORIGINATOR     = 

OBJECT_NAME    = SOYUZ-MS 28
OBJECT_ID      = 2025-275A
CENTER_NAME    = EARTH
REF_FRAME      = TEME
TIME_SYSTEM    = UTC
MEAN_ELEMENT_THEORY = SGP/SGP4

EPOCH          = 2026-04-05T00:53:27.707136
MEAN_MOTION    = 15.48778120
ECCENTRICITY   = .00062949
INCLINATION    = 51.6327
RA_OF_ASC_NODE = 302.0967
ARG_OF_PERICENTER = 273.6206
MEAN_ANOMALY   = 86.4063

EPHEMERIS_TYPE = 0
CLASSIFICATION_TYPE = U
NORAD_CAT_ID   = 66664
ELEMENT_SET_NO = 999
REV_AT_EPOCH   = 56050
BSTAR          = .17854288E-3
MEAN_MOTION_DOT = .9326E-4
MEAN_MOTION_DDOT = 0

CCSDS_OMM_VERS = 2.0
CREATION_DATE  = 
ORIGINATOR     = 

OBJECT_NAME    = DUPLEX
OBJECT_ID      = 1998-067XS
CENTER_NAME    = EARTH
REF_FRAME      = TEME
TIME_SYSTEM    = UTC
MEAN_ELEMENT_THEORY = SGP/SGP4

EPOCH          = 2026-04-05T06:50:09.612672
MEAN_MOTION    = 15.58054408
ECCENTRICITY   = .00033888
INCLINATION    = 51.6286
RA_OF_ASC_NODE = 296.2512
ARG_OF_PERICENTER = 238.8669
MEAN_ANOMALY   = 121.1992

EPHEMERIS_TYPE = 0
CLASSIFICATION_TYPE = U
NORAD_CAT_ID   = 66906
ELEMENT_SET_NO = 999
REV_AT_EPOCH   = 1927
BSTAR          = .45585237E-3
MEAN_MOTION_DOT = .34554E-3
MEAN_MOTION_DDOT = 0

CCSDS_OMM_VERS = 2.0
CREATION_DATE  = 
ORIGINATOR     = 

OBJECT_NAME    = ISS OBJECT XT
OBJECT_ID      = 1998-067XT
CENTER_NAME    = EARTH
REF_FRAME      = TEME
TIME_SYSTEM    = UTC
MEAN_ELEMENT_THEORY = SGP/SGP4

EPOCH          = 2026-04-04T13:11:17.854944
MEAN_MOTION    = 15.80264331
ECCENTRICITY   = .00071857
INCLINATION    = 51.6224
RA_OF_ASC_NODE = 292.7926
ARG_OF_PERICENTER = 249.6883
MEAN_ANOMALY   = 110.3346

EPHEMERIS_TYPE = 0
CLASSIFICATION_TYPE = U
NORAD_CAT_ID   = 66907
ELEMENT_SET_NO = 999
REV_AT_EPOCH   = 1925
BSTAR          = .15899957E-2
MEAN_MOTION_DOT = .316879E-2
MEAN_MOTION_DDOT = 0

CCSDS_OMM_VERS = 2.0
CREATION_DATE  = 
ORIGINATOR     = 

OBJECT_NAME    = ISS OBJECT XU
OBJECT_ID      = 1998-067XU
CENTER_NAME    = EARTH
REF_FRAME      = TEME
TIME_SYSTEM    = UTC
MEAN_ELEMENT_THEORY = SGP/SGP4

EPOCH          = 2026-04-04T13:04:01.545312
MEAN_MOTION    = 15.80626802
ECCENTRICITY   = .00073235
INCLINATION    = 51.6221
RA_OF_ASC_NODE = 292.7537
ARG_OF_PERICENTER = 249.1942
MEAN_ANOMALY   = 110.8275

EPHEMERIS_TYPE = 0
CLASSIFICATION_TYPE = U
NORAD_CAT_ID   = 66908
ELEMENT_SET_NO = 999
REV_AT_EPOCH   = 1925
BSTAR          = .16262848E-2
MEAN_MOTION_DOT = .330086E-2
MEAN_MOTION_DDOT = 0

CCSDS_OMM_VERS = 2.0
CREATION_DATE  = 
ORIGINATOR     = 

OBJECT_NAME    = SILVERSAT
OBJECT_ID      = 1998-067XV
CENTER_NAME    = EARTH
REF_FRAME      = TEME
TIME_SYSTEM    = UTC
MEAN_ELEMENT_THEORY = SGP/SGP4

EPOCH          = 2026-04-04T18:53:20.827104
MEAN_MOTION    = 15.88187528
ECCENTRICITY   = .000905
INCLINATION    = 51.6184
RA_OF_ASC_NODE = 289.8512
ARG_OF_PERICENTER = 258.4718
MEAN_ANOMALY   = 101.5271

EPHEMERIS_TYPE = 0
CLASSIFICATION_TYPE = U
NORAD_CAT_ID   = 66909
ELEMENT_SET_NO = 999
REV_AT_EPOCH   = 1931
BSTAR          = .18876E-2
MEAN_MOTION_DOT = .565248E-2
MEAN_MOTION_DDOT = 0

CCSDS_OMM_VERS = 2.0
CREATION_DATE  = 
ORIGINATOR     = 

OBJECT_NAME    = ISS OBJECT XW
OBJECT_ID      = 1998-067XW
CENTER_NAME    = EARTH
REF_FRAME      = TEME
TIME_SYSTEM    = UTC
MEAN_ELEMENT_THEORY = SGP/SGP4

EPOCH          = 2026-04-04T19:36:47.567808
MEAN_MOTION    = 15.78347512
ECCENTRICITY   = .00074492
INCLINATION    = 51.6195
RA_OF_ASC_NODE = 291.5715
ARG_OF_PERICENTER = 246.0581
MEAN_ANOMALY   = 113.9639

EPHEMERIS_TYPE = 0
CLASSIFICATION_TYPE = U
NORAD_CAT_ID   = 66910
ELEMENT_SET_NO = 999
REV_AT_EPOCH   = 1929
BSTAR          = .12620228E-2
MEAN_MOTION_DOT = .228077E-2
MEAN_MOTION_DDOT = 0

CCSDS_OMM_VERS = 2.0
CREATION_DATE  = 
ORIGINATOR     = 

OBJECT_NAME    = ISS OBJECT XX
OBJECT_ID      = 1998-067XX
CENTER_NAME    = EARTH
REF_FRAME      = TEME
TIME_SYSTEM    = UTC
MEAN_ELEMENT_THEORY = SGP/SGP4

EPOCH          = 2026-04-05T06:06:20.007072
MEAN_MOTION    = 16.00504805
ECCENTRICITY   = .00116803
INCLINATION    = 51.6140
RA_OF_ASC_NODE = 285.4187
ARG_OF_PERICENTER = 268.8533
MEAN_ANOMALY   = 91.1139

EPHEMERIS_TYPE = 0
CLASSIFICATION_TYPE = U
NORAD_CAT_ID   = 66911
ELEMENT_SET_NO = 999
REV_AT_EPOCH   = 1940
BSTAR          = .21826262E-2
MEAN_MOTION_DOT = .1178235E-1
MEAN_MOTION_DDOT = .72726344E-3

CCSDS_OMM_VERS = 2.0
CREATION_DATE  = 
ORIGINATOR     = 

OBJECT_NAME    = ISS OBJECT XY
OBJECT_ID      = 1998-067XY
CENTER_NAME    = EARTH
REF_FRAME      = TEME
TIME_SYSTEM    = UTC
MEAN_ELEMENT_THEORY = SGP/SGP4

EPOCH          = 2026-04-05T05:58:08.659776
MEAN_MOTION    = 15.69674639
ECCENTRICITY   = .00051641
INCLINATION    = 51.6246
RA_OF_ASC_NODE = 292.2426
ARG_OF_PERICENTER = 247.0020
MEAN_ANOMALY   = 113.0432

EPHEMERIS_TYPE = 0
CLASSIFICATION_TYPE = U
NORAD_CAT_ID   = 66912
ELEMENT_SET_NO = 999
REV_AT_EPOCH   = 1931
BSTAR          = .11559235E-2
MEAN_MOTION_DOT = .141961E-2
MEAN_MOTION_DDOT = 0

CCSDS_OMM_VERS = 2.0
CREATION_DATE  = 
ORIGINATOR     = 

OBJECT_NAME    = KNACKSAT-2
OBJECT_ID      = 1998-067XZ
CENTER_NAME    = EARTH
REF_FRAME      = TEME
TIME_SYSTEM    = UTC
MEAN_ELEMENT_THEORY = SGP/SGP4

EPOCH          = 2026-04-04T18:57:48.329280
MEAN_MOTION    = 15.54148205
ECCENTRICITY   = .00107207
INCLINATION    = 51.6331
RA_OF_ASC_NODE = 301.9471
ARG_OF_PERICENTER = 281.6024
MEAN_ANOMALY   = 78.3763

EPHEMERIS_TYPE = 0
CLASSIFICATION_TYPE = U
NORAD_CAT_ID   = 67683
ELEMENT_SET_NO = 999
REV_AT_EPOCH   = 884
BSTAR          = .75544083E-3
MEAN_MOTION_DOT = .4999E-3
MEAN_MOTION_DDOT = 0

